[{"OBJECT_NAME":"STARLINK-4572","OBJECT_ID":"2022-105AW","EPOCH":"2026-03-09T16:09:10.695744","MEAN_MOTION":15.21020685,"ECCENTRICITY":0.00018422,"INCLINATION":97.6182,"RA_OF_ASC_NODE":315.6347,"ARG_OF_PERICENTER":18.3505,"MEAN_ANOMALY":341.7796,"EPHEMERIS_TYPE":0,"CLASSIFICATION_TYPE":"U","NORAD_CAT_ID":53692,"ELEMENT_SET_NO":999,"REV_AT_EPOCH":19355,"BSTAR":0.00056421038,"MEAN_MOTION_DOT":0.00012459,"MEAN_MOTION_DDOT":0},{"OBJECT_NAME":"IRIDE FM6","OBJECT_ID":"2025-276AL","EPOCH":"2026-03-09T18:13:54.633504","MEAN_MOTION":15.19819597,"ECCENTRICITY":5.407e-5,"INCLINATION":97.4286,"RA_OF_ASC_NODE":144.1581,"ARG_OF_PERICENTER":341.8424,"MEAN_ANOMALY":18.2792,"EPHEMERIS_TYPE":0,"CLASSIFICATION_TYPE":"U","NORAD_CAT_ID":66700,"ELEMENT_SET_NO":999,"REV_AT_EPOCH":1533,"BSTAR":0.00050046454,"MEAN_MOTION_DOT":0.00010662,"MEAN_MOTION_DDOT":0}]
